{
  "norad_id": 50171,
  "name": "STARLINK-3286",
  "history": [
    {
      "epoch": "2026-03-28T22:14:59.220384Z",
      "apogee_km": 540.5624467034886,
      "perigee_km": 538.8980078486056,
      "latitude_deg": 1.936039401034139e-06,
      "longitude_deg": 2.6740477661453794,
      "height_km": 540.6227837550871,
      "semi_major_axis_km": 6917.867227276047,
      "eccentricity": 0.0001203,
      "inclination_deg": 53.2167,
      "raan_deg": 162.7613,
      "arg_perigee_deg": 89.7733,
      "mean_anomaly_deg": 270.3397,
      "mean_motion_rev_day": 15.08844306
    },
    {
      "epoch": "2026-03-30T04:27:18.472608Z",
      "apogee_km": 541.2040171224071,
      "perigee_km": 538.1878419651257,
      "latitude_deg": 5.989827428450993e-06,
      "longitude_deg": -97.295555682109,
      "height_km": 540.4584356834049,
      "semi_major_axis_km": 6917.832929543766,
      "eccentricity": 0.000218,
      "inclination_deg": 53.215,
      "raan_deg": 157.1124,
      "arg_perigee_deg": 84.9869,
      "mean_anomaly_deg": 275.1372,
      "mean_motion_rev_day": 15.08855527
    },
    {
      "epoch": "2026-03-30T13:59:37.443264Z",
      "apogee_km": 540.6505374246663,
      "perigee_km": 538.8034677359774,
      "latitude_deg": 1.278124237916619e-05,
      "longitude_deg": 117.44836892319944,
      "height_km": 540.6766629954639,
      "semi_major_axis_km": 6917.8640025803215,
      "eccentricity": 0.0001335,
      "inclination_deg": 53.2156,
      "raan_deg": 155.3271,
      "arg_perigee_deg": 93.3588,
      "mean_anomaly_deg": 266.7557,
      "mean_motion_rev_day": 15.08845361
    },
    {
      "epoch": "2026-03-31T10:39:38.048832Z",
      "apogee_km": 540.705633194324,
      "perigee_km": 538.7546563021615,
      "latitude_deg": 2.5952848590461922e-05,
      "longitude_deg": 162.73209987360048,
      "height_km": 540.6142719594817,
      "semi_major_axis_km": 6917.867144748242,
      "eccentricity": 0.00014101,
      "inclination_deg": 53.2153,
      "raan_deg": 151.4621,
      "arg_perigee_deg": 89.3372,
      "mean_anomaly_deg": 270.7782,
      "mean_motion_rev_day": 15.08844333
    },
    {
      "epoch": "2026-04-01T20:02:44.006784Z",
      "apogee_km": 540.6376859009351,
      "perigee_km": 538.8418050978034,
      "latitude_deg": 1.386885324475681e-05,
      "longitude_deg": 14.340495146849744,
      "height_km": 540.6522171640052,
      "semi_major_axis_km": 6917.876745499369,
      "eccentricity": 0.0001298,
      "inclination_deg": 53.2157,
      "raan_deg": 145.2164,
      "arg_perigee_deg": 91.076,
      "mean_anomaly_deg": 269.0381,
      "mean_motion_rev_day": 15.08841192
    },
    {
      "epoch": "2026-04-02T19:53:30.542208Z",
      "apogee_km": 540.3264914794827,
      "perigee_km": 539.0929010566051,
      "latitude_deg": -3.3867117962076094e-05,
      "longitude_deg": 11.20623174084268,
      "height_km": 540.5269577153525,
      "semi_major_axis_km": 6917.846696268044,
      "eccentricity": 8.916e-05,
      "inclination_deg": 53.2153,
      "raan_deg": 140.7554,
      "arg_perigee_deg": 82.6529,
      "mean_anomaly_deg": 277.4564,
      "mean_motion_rev_day": 15.08851023
    },
    {
      "epoch": "2026-04-03T10:11:59.160192Z",
      "apogee_km": 540.7741142357572,
      "perigee_km": 538.6914203636134,
      "latitude_deg": -2.4159473977196772e-05,
      "longitude_deg": 153.32509084383074,
      "height_km": 540.7582966167289,
      "semi_major_axis_km": 6917.869767299685,
      "eccentricity": 0.00015053,
      "inclination_deg": 53.2166,
      "raan_deg": 138.0811,
      "arg_perigee_deg": 97.1765,
      "mean_anomaly_deg": 262.9398,
      "mean_motion_rev_day": 15.08843475
    },
    {
      "epoch": "2026-04-04T11:38:10.136256Z",
      "apogee_km": 540.707353177515,
      "perigee_km": 538.814477949858,
      "latitude_deg": -2.2039083468640013e-05,
      "longitude_deg": 125.97742321749674,
      "height_km": 540.742265579463,
      "semi_major_axis_km": 6917.897915563686,
      "eccentricity": 0.00013681,
      "inclination_deg": 53.2169,
      "raan_deg": 133.3238,
      "arg_perigee_deg": 95.1953,
      "mean_anomaly_deg": 264.9195,
      "mean_motion_rev_day": 15.08834266
    },
    {
      "epoch": "2026-04-05T11:28:57.059616Z",
      "apogee_km": 540.6530791419773,
      "perigee_km": 538.8450204440032,
      "latitude_deg": 1.700748395557235e-05,
      "longitude_deg": 122.8408013857144,
      "height_km": 540.6182779087028,
      "semi_major_axis_km": 6917.88604979299,
      "eccentricity": 0.00013068,
      "inclination_deg": 53.2159,
      "raan_deg": 128.862,
      "arg_perigee_deg": 88.3272,
      "mean_anomaly_deg": 271.787,
      "mean_motion_rev_day": 15.08838148
    },
    {
      "epoch": "2026-04-06T01:47:25.235232Z",
      "apogee_km": 540.6394378794857,
      "perigee_km": 538.8701178783767,
      "latitude_deg": -4.847783679838481e-05,
      "longitude_deg": -95.04144838299045,
      "height_km": 540.6752222705637,
      "semi_major_axis_km": 6917.891777878931,
      "eccentricity": 0.00012788,
      "inclination_deg": 53.2161,
      "raan_deg": 126.1848,
      "arg_perigee_deg": 91.6037,
      "mean_anomaly_deg": 268.5101,
      "mean_motion_rev_day": 15.08836274
    },
    {
      "epoch": "2026-04-07T06:24:21.595104Z",
      "apogee_km": 540.6502895694148,
      "perigee_km": 538.8353146245372,
      "latitude_deg": -2.6837712633023055e-05,
      "longitude_deg": -170.8037713839109,
      "height_km": 540.6747521162542,
      "semi_major_axis_km": 6917.879802096976,
      "eccentricity": 0.00013118,
      "inclination_deg": 53.2167,
      "raan_deg": 120.8325,
      "arg_perigee_deg": 92.2891,
      "mean_anomaly_deg": 267.8251,
      "mean_motion_rev_day": 15.08840192
    },
    {
      "epoch": "2026-04-08T07:50:31.737408Z",
      "apogee_km": 540.6617639613987,
      "perigee_km": 538.8174580569048,
      "latitude_deg": -5.741622385702594e-05,
      "longitude_deg": 161.8518175342311,
      "height_km": 540.5937537684824,
      "semi_major_axis_km": 6917.876611009152,
      "eccentricity": 0.0001333,
      "inclination_deg": 53.2171,
      "raan_deg": 116.075,
      "arg_perigee_deg": 87.4156,
      "mean_anomaly_deg": 272.6988,
      "mean_motion_rev_day": 15.08841236
    }
  ]
}